IRIDIUM 106             
1 41917U 17003A   24047.57071680 -.00000076  00000+0 -34049-4 0  9992
2 41917  86.3917  84.4412 0002188 102.8267 257.3174 14.34216124371149
IRIDIUM 103             
1 41918U 17003B   24047.55803314  .00000072  00000+0  18699-4 0  9995
2 41918  86.3919  84.3489 0001929  89.3159 270.8258 14.34218274371169
IRIDIUM 109             
1 41919U 17003C   24047.56437374  .00000151  00000+0  46729-4 0  9999
2 41919  86.3922  84.3918 0002207  86.2336 273.9112 14.34217302371135
IRIDIUM 102             
1 41920U 17003D   24047.60243151  .00000326  00000+0  10926-3 0  9997
2 41920  86.3918  84.3174 0002223  89.1129 271.0321 14.34216800371229
IRIDIUM 105             
1 41921U 17003E   24047.57311033  .00000279  00000+0  92696-4 0  9991
2 41921  86.3934  52.7260 0002142  88.6300 271.5141 14.34215340373076
IRIDIUM 104             
1 41922U 17003F   24047.61511011  .00000472  00000+0  16140-3 0  9999
2 41922  86.3917  84.3420 0002100  87.6721 272.4715 14.34217370371213
IRIDIUM 114             
1 41923U 17003G   24047.55168986  .00000114  00000+0  33672-4 0  9995
2 41923  86.3920  84.3546 0002287  98.7995 261.3460 14.34217846371187
IRIDIUM 108             
1 41924U 17003H   24047.51021428  .00000021  00000+0  31382-6 0  9996
2 41924  86.3929  52.6848 0002261  97.1303 263.0150 14.34217480373033
